ONEWEB-0275             
1 48993U 21060AC  25108.63441787  .00000133  00000+0  31507-3 0  9993
2 48993  87.9030 313.4118 0001747  82.7518 277.3811 13.16595232184989
ONEWEB-0276             
1 48994U 21060AD  25109.50363279  .00000003  00000+0 -26373-4 0  9993
2 48994  87.9032 313.2348 0001471  85.4676 274.6623 13.16596742185129
ONEWEB-0277             
1 48995U 21060AE  25108.52832102  .00000043  00000+0  77921-4 0  9999
2 48995  87.9032 313.4666 0001604  72.2600 287.8706 13.16596448184977
ONEWEB-0278             
1 48996U 21060AF  25108.51882380 -.00000041  00000+0 -14177-3 0  9995
2 48996  87.9031 313.4283 0001621  96.0502 264.0814 13.16595992185124
ONEWEB-0279             
1 48997U 21060AG  25109.05872214 -.00000043  00000+0 -14654-3 0  9993
2 48997  87.9029 313.3166 0001725  75.9463 284.1859 13.16595319185112
ONEWEB-0280             
1 48998U 21060AH  25109.07377834  .00000046  00000+0  85596-4 0  9999
2 48998  87.9029 313.3193 0001358  86.8665 273.2621 13.16593472185046
ONEWEB-0281             
1 48999U 21060AJ  25109.07931455  .00000101  00000+0  22939-3 0  9998
2 48999  87.9028 313.3167 0001883  86.3602 273.7744 13.16595169185132
ONEWEB-0282             
1 49000U 21060AK  25109.10938189  .00000071  00000+0  15142-3 0  9991
2 49000  87.9031 313.3275 0001535  83.7365 276.3940 13.16596345185124
